start=new Date('2021-11-05T00:00:00.000Z').valueOf();
sats=[{"OBJECT_ID":"2021-024H","MEAN_ELEMENT_THEORY":"SGP4","DECAY_DATE":null,"ECCENTRICITY":"0.00078250","GP_ID":"188955214","OBJECT_TYPE":"PAYLOAD","FILE":"3202404","EPHEMERIS_TYPE":"0","CENTER_NAME":"EARTH","REV_AT_EPOCH":"374","TLE_LINE1":"1 47984U 21024H   21308.91667824  .00078528  00000-0  55631-3 0  9991","TIME_SYSTEM":"UTC","REF_FRAME":"TEME","CLASSIFICATION_TYPE":"U","RA_OF_ASC_NODE":"163.6108","BSTAR":"0.00055631000000","COUNTRY_CODE":"US","MEAN_MOTION_DOT":"0.00078528","MEAN_ANOMALY":"236.1075","NORAD_CAT_ID":"47984","INCLINATION":"53.0412","PERIOD":"91.530","MEAN_MOTION_DDOT":"0.0000000000000","ELEMENT_SET_NO":"999","OBJECT_NAME":"STARLINK-2316","RCS_SIZE":"LARGE","ARG_OF_PERICENTER":"294.3636","EPOCH":"2021-11-04T22:00:00.999936","TLE_LINE2":"2 47984  53.0412 163.6108 0007825 294.3636 236.1075 15.73260078  3746","SEMIMAJOR_AXIS":"6727.724","SITE":"AFETR","PERIAPSIS":"344.324","LAUNCH_DATE":"2021-03-24","MEAN_MOTION":"15.73260078","APOAPSIS":"354.853"},{"OBJECT_ID":"2021-024J","ECCENTRICITY":"0.00020600","MEAN_ELEMENT_THEORY":"SGP4","DECAY_DATE":null,"FILE":"3202404","OBJECT_TYPE":"PAYLOAD","GP_ID":"188954972","TLE_LINE1":"1 47985U 21024J   21308.91667824 -.00013481  00000-0 -92788-3 0  9995","EPHEMERIS_TYPE":"0","REV_AT_EPOCH":"360","CENTER_NAME":"EARTH","CLASSIFICATION_TYPE":"U","BSTAR":"-0.00092788000000","RA_OF_ASC_NODE":"189.3837","REF_FRAME":"TEME","TIME_SYSTEM":"UTC","MEAN_MOTION_DOT":"-0.00013481","NORAD_CAT_ID":"47985","MEAN_ANOMALY":"137.5698","COUNTRY_CODE":"US","PERIOD":"95.696","INCLINATION":"53.0541","PERIAPSIS":"550.784","SITE":"AFETR","RCS_SIZE":"LARGE","OBJECT_NAME":"STARLINK-2308","MEAN_MOTION_DDOT":"0.0000000000000","ELEMENT_SET_NO":"999","TLE_LINE2":"2 47985  53.0541 189.3837 0002060  69.5889 137.5698 15.04770776  3607","SEMIMAJOR_AXIS":"6930.346","ARG_OF_PERICENTER":"69.5889","EPOCH":"2021-11-04T22:00:00.999936","APOAPSIS":"553.639","LAUNCH_DATE":"2021-03-24","MEAN_MOTION":"15.04770776"},{"TIME_SYSTEM":"UTC","REF_FRAME":"TEME","BSTAR":"0.00055338000000","RA_OF_ASC_NODE":"158.9827","CLASSIFICATION_TYPE":"U","REV_AT_EPOCH":"370","CENTER_NAME":"EARTH","EPHEMERIS_TYPE":"0","TLE_LINE1":"1 47986U 21024K   21308.91667824  .00069476  00000-0  55338-3 0  9999","OBJECT_TYPE":"PAYLOAD","GP_ID":"188953720","FILE":"3202404","ECCENTRICITY":"0.00067760","DECAY_DATE":null,"MEAN_ELEMENT_THEORY":"SGP4","OBJECT_ID":"2021-024K","MEAN_MOTION":"15.70542338","LAUNCH_DATE":"2021-03-24","APOAPSIS":"361.912","TLE_LINE2":"2 47986  53.0304 158.9827 0006776 311.8794 128.7327 15.70542338  3708","SEMIMAJOR_AXIS":"6735.483","EPOCH":"2021-11-04T22:00:00.999936","ARG_OF_PERICENTER":"311.8794","RCS_SIZE":"LARGE","ELEMENT_SET_NO":"999","MEAN_MOTION_DDOT":"0.0000000000000","OBJECT_NAME":"STARLINK-2313","PERIAPSIS":"352.784","SITE":"AFETR","INCLINATION":"53.0304","PERIOD":"91.688","COUNTRY_CODE":"US","NORAD_CAT_ID":"47986","MEAN_ANOMALY":"128.7327","MEAN_MOTION_DOT":"0.00069476"},{"PERIOD":"91.529","INCLINATION":"53.0419","MEAN_MOTION_DOT":"0.00080796","MEAN_ANOMALY":"314.2560","NORAD_CAT_ID":"47987","COUNTRY_CODE":"US","APOAPSIS":"351.543","LAUNCH_DATE":"2021-03-24","MEAN_MOTION":"15.73273986","SITE":"AFETR","PERIAPSIS":"347.555","ELEMENT_SET_NO":"999","MEAN_MOTION_DDOT":"0.0000000000000","OBJECT_NAME":"STARLINK-2311","RCS_SIZE":"LARGE","EPOCH":"2021-11-04T22:00:00.999936","ARG_OF_PERICENTER":"22.4010","SEMIMAJOR_AXIS":"6727.684","TLE_LINE2":"2 47987  53.0419 163.2705 0002964  22.4010 314.2560 15.73273986  3716","FILE":"3202404","GP_ID":"188953970","OBJECT_TYPE":"PAYLOAD","OBJECT_ID":"2021-024L","DECAY_DATE":null,"MEAN_ELEMENT_THEORY":"SGP4","ECCENTRICITY":"0.00029640","CLASSIFICATION_TYPE":"U","RA_OF_ASC_NODE":"163.2705","BSTAR":"0.00057257000000","REF_FRAME":"TEME","TIME_SYSTEM":"UTC","TLE_LINE1":"1 47987U 21024L   21308.91667824  .00080796  00000-0  57257-3 0  9990","EPHEMERIS_TYPE":"0","REV_AT_EPOCH":"371","CENTER_NAME":"EARTH"},{"GP_ID":"188913177","OBJECT_TYPE":"PAYLOAD","FILE":"3201533","OBJECT_ID":"2021-024M","DECAY_DATE":null,"MEAN_ELEMENT_THEORY":"SGP4","ECCENTRICITY":"0.00014020","TIME_SYSTEM":"UTC","REF_FRAME":"TEME","CLASSIFICATION_TYPE":"U","RA_OF_ASC_NODE":"232.2853","BSTAR":"-0.00000016759000","EPHEMERIS_TYPE":"0","REV_AT_EPOCH":"3531","CENTER_NAME":"EARTH","TLE_LINE1":"1 47988U 21024M   21308.50289792 -.00000284  00000-0 -16759-6 0  9991","INCLINATION":"53.0565","PERIOD":"95.592","COUNTRY_CODE":"US","MEAN_MOTION_DOT":"-0.00000284","MEAN_ANOMALY":"289.9239","NORAD_CAT_ID":"47988","LAUNCH_DATE":"2021-03-24","MEAN_MOTION":"15.06398344","APOAPSIS":"548.190","MEAN_MOTION_DDOT":"0.0000000000000","ELEMENT_SET_NO":"999","OBJECT_NAME":"STARLINK-2306","RCS_SIZE":"LARGE","EPOCH":"2021-11-04T12:04:10.380288","ARG_OF_PERICENTER":"70.1901","TLE_LINE2":"2 47988  53.0565 232.2853 0001402  70.1901 289.9239 15.06398344 35319","SEMIMAJOR_AXIS":"6925.354","SITE":"AFETR","PERIAPSIS":"546.248"},{"TIME_SYSTEM":"UTC","REF_FRAME":"TEME","CLASSIFICATION_TYPE":"U","RA_OF_ASC_NODE":"166.6431","BSTAR":"-0.03204300000000","EPHEMERIS_TYPE":"0","CENTER_NAME":"EARTH","REV_AT_EPOCH":"369","TLE_LINE1":"1 47989U 21024N   21308.91667824 -.00934409  00000-0 -32043-1 0  9997","GP_ID":"188955466","OBJECT_TYPE":"PAYLOAD","FILE":"3202404","OBJECT_ID":"2021-024N","MEAN_ELEMENT_THEORY":"SGP4","DECAY_DATE":null,"ECCENTRICITY":"0.00014710","LAUNCH_DATE":"2021-03-24","MEAN_MOTION":"15.32546456","APOAPSIS":"469.227","ELEMENT_SET_NO":"999","MEAN_MOTION_DDOT":"0.0000000000000","OBJECT_NAME":"STARLINK-2305","RCS_SIZE":"MEDIUM","EPOCH":"2021-11-04T22:00:00.999936","ARG_OF_PERICENTER":"59.7602","SEMIMAJOR_AXIS":"6846.355","TLE_LINE2":"2 47989  53.0417 166.6431 0001471  59.7602  66.9550 15.32546456  3698","SITE":"AFETR","PERIAPSIS":"467.213","INCLINATION":"53.0417","PERIOD":"93.961","COUNTRY_CODE":"US","MEAN_MOTION_DOT":"-0.00934409","MEAN_ANOMALY":"66.9550","NORAD_CAT_ID":"47989"},{"APOAPSIS":"468.586","LAUNCH_DATE":"2021-03-24","MEAN_MOTION":"15.32718057","SITE":"AFETR","PERIAPSIS":"466.832","MEAN_MOTION_DDOT":"0.0000000000000","ELEMENT_SET_NO":"999","OBJECT_NAME":"STARLINK-2307","RCS_SIZE":"LARGE","ARG_OF_PERICENTER":"70.5597","EPOCH":"2021-11-04T22:00:00.999936","SEMIMAJOR_AXIS":"6845.844","TLE_LINE2":"2 47990  53.0545 166.6611 0001281  70.5597  21.9505 15.32718057  3694","PERIOD":"93.951","INCLINATION":"53.0545","MEAN_MOTION_DOT":"-0.01056554","MEAN_ANOMALY":"21.9505","NORAD_CAT_ID":"47990","COUNTRY_CODE":"US","CLASSIFICATION_TYPE":"U","RA_OF_ASC_NODE":"166.6611","BSTAR":"-0.03591000000000","TIME_SYSTEM":"UTC","REF_FRAME":"TEME","TLE_LINE1":"1 47990U 21024P   21308.91667824 -.01056554  00000-0 -35910-1 0  9992","EPHEMERIS_TYPE":"0","REV_AT_EPOCH":"369","CENTER_NAME":"EARTH","FILE":"3202404","GP_ID":"188954214","OBJECT_TYPE":"PAYLOAD","OBJECT_ID":"2021-024P","DECAY_DATE":null,"MEAN_ELEMENT_THEORY":"SGP4","ECCENTRICITY":"0.00012810"},{"INCLINATION":"53.0509","PERIOD":"95.696","COUNTRY_CODE":"US","MEAN_ANOMALY":"84.0194","NORAD_CAT_ID":"47991","MEAN_MOTION_DOT":"-0.00012072","MEAN_MOTION":"15.04764340","LAUNCH_DATE":"2021-03-24","APOAPSIS":"553.437","ARG_OF_PERICENTER":"69.7977","EPOCH":"2021-11-04T22:00:00.999936","TLE_LINE2":"2 47991  53.0509 179.1748 0001740  69.7977  84.0194 15.04764340  3607","SEMIMAJOR_AXIS":"6930.366","ELEMENT_SET_NO":"999","MEAN_MOTION_DDOT":"0.0000000000000","OBJECT_NAME":"STARLINK-2279","RCS_SIZE":"LARGE","SITE":"AFETR","PERIAPSIS":"551.025","GP_ID":"188954464","OBJECT_TYPE":"PAYLOAD","FILE":"3202404","MEAN_ELEMENT_THEORY":"SGP4","DECAY_DATE":null,"ECCENTRICITY":"0.00017400","OBJECT_ID":"2021-024Q","REF_FRAME":"TEME","TIME_SYSTEM":"UTC","RA_OF_ASC_NODE":"179.1748","BSTAR":"-0.00082890000000","CLASSIFICATION_TYPE":"U","CENTER_NAME":"EARTH","REV_AT_EPOCH":"360","EPHEMERIS_TYPE":"0","TLE_LINE1":"1 47991U 21024Q   21308.91667824 -.00012072  00000-0 -82890-3 0  9990"},{"PERIOD":"95.592","INCLINATION":"53.0515","MEAN_ANOMALY":"102.3040","NORAD_CAT_ID":"47992","MEAN_MOTION_DOT":"-0.00008013","COUNTRY_CODE":"US","APOAPSIS":"548.622","MEAN_MOTION":"15.06395621","LAUNCH_DATE":"2021-03-24","SITE":"AFETR","PERIAPSIS":"545.832","ARG_OF_PERICENTER":"50.5301","EPOCH":"2021-11-04T22:00:00.999936","SEMIMAJOR_AXIS":"6925.362","TLE_LINE2":"2 47992  53.0515 175.4192 0002014  50.5301 102.3040 15.06395621  3632","ELEMENT_SET_NO":"999","MEAN_MOTION_DDOT":"0.0000000000000","OBJECT_NAME":"STARLINK-2229","RCS_SIZE":"LARGE","FILE":"3202404","GP_ID":"188955215","OBJECT_TYPE":"PAYLOAD","MEAN_ELEMENT_THEORY":"SGP4","DECAY_DATE":null,"ECCENTRICITY":"0.00020140","OBJECT_ID":"2021-024R","RA_OF_ASC_NODE":"175.4192","BSTAR":"-0.00051968000000","CLASSIFICATION_TYPE":"U","TIME_SYSTEM":"UTC","REF_FRAME":"TEME","TLE_LINE1":"1 47992U 21024R   21308.91667824 -.00008013  00000-0 -51968-3 0  9993","REV_AT_EPOCH":"363","CENTER_NAME":"EARTH","EPHEMERIS_TYPE":"0"},{"CLASSIFICATION_TYPE":"U","RA_OF_ASC_NODE":"215.4831","BSTAR":"0.00023509000000","REF_FRAME":"TEME","TIME_SYSTEM":"UTC","TLE_LINE1":"1 47993U 21024S   21308.90419795  .00003222  00000-0  23509-3 0  9990","EPHEMERIS_TYPE":"0","REV_AT_EPOCH":"3610","CENTER_NAME":"EARTH","FILE":"3202404","GP_ID":"188954973","OBJECT_TYPE":"PAYLOAD","OBJECT_ID":"2021-024S","MEAN_ELEMENT_THEORY":"SGP4","DECAY_DATE":null,"ECCENTRICITY":"0.00014900","APOAPSIS":"548.232","LAUNCH_DATE":"2021-03-24","MEAN_MOTION":"15.06404345","SITE":"AFETR","PERIAPSIS":"546.168","MEAN_MOTION_DDOT":"0.0000000000000","ELEMENT_SET_NO":"999","OBJECT_NAME":"STARLINK-2273","RCS_SIZE":"LARGE","EPOCH":"2021-11-04T21:42:02.702880","ARG_OF_PERICENTER":"86.3442","TLE_LINE2":"2 47993  53.0553 215.4831 0001490  86.3442 273.7718 15.06404345 36107","SEMIMAJOR_AXIS":"6925.335","PERIOD":"95.592","INCLINATION":"53.0553","MEAN_MOTION_DOT":"0.00003222","MEAN_ANOMALY":"273.7718","NORAD_CAT_ID":"47993","COUNTRY_CODE":"US"}];
